ONEWEB-0230             
1 48769U 21045C   23227.12384668 -.00000025  00000+0 -10046-3 0  9992
2 48769  87.9006 105.7610 0001852  79.9491 280.1848 13.15551704109420
ONEWEB-0237             
1 48770U 21045D   23227.03724284  .00000197  00000+0  48830-3 0  9996
2 48770  87.8992 105.6999 0001705  99.8036 260.3287 13.15549002109152
ONEWEB-0235             
1 48771U 21045E   23227.39006212 -.00000075  00000+0 -23456-3 0  9994
2 48771  87.8987 105.6617 0001722 110.4081 249.7234 13.15547260109183
ONEWEB-0242             
1 48772U 21045F   23226.39498545 -.00000078  00000+0 -23999-3 0  9993
2 48772  87.8989 105.8511 0001634  87.1833 272.9484 13.15549046109109
ONEWEB-0241             
1 48773U 21045G   23226.23019442 -.00000151  00000+0 -43509-3 0  9993
2 48773  87.9001 105.9019 0002180  90.7672 269.3708 13.15546683108997
ONEWEB-0243             
1 48774U 21045H   23227.17456925  .00000132  00000+0  31680-3 0  9993
2 48774  87.8979 105.6734 0001799  91.5116 268.6220 13.15545340109147
ONEWEB-0222             
1 48775U 21045J   23227.08794985  .00000015  00000+0  64082-5 0  9999
2 48775  87.8986 105.7274 0001965  91.3574 268.7781 13.15546476109163
ONEWEB-0244             
1 48776U 21045K   23227.03302199  .00000198  00000+0  49247-3 0  9993
2 48776  87.8987 105.7228 0001492  86.5318 273.5983 13.15552493109727
